STARLINK-30327          
1 57707U 23129K   26068.51769668  .00007635  00000+0  29314-3 0  9995
2 57707  42.9974  85.9834 0023030  70.8320 289.5022 15.26626807140903
STARLINK-30602          
1 58081U 23160G   26068.04324128  .00004737  00000+0  20841-3 0  9998
2 58081  43.0026  81.8046 0000815 268.3637  91.7120 15.22911342132843
